{
  "type": "FeatureCollection",
  "features": [
    {
      "type": "Feature",
      "properties": {
        "norad_id": 46277,
        "name": "NEMO-HD",
        "group": "resource",
        "lat": 10.79717888078386,
        "lon": 53.00378625918249,
        "alt_km": 445.5754191285787,
        "timestamp": "2025-12-21T09:37:22.306176+00:00",
        "meta_object_name": "NEMO-HD",
        "meta_object_id": "2020-061F",
        "meta_epoch": "2025-12-21T04:53:55.895424",
        "meta_mean_motion": 15.40487127,
        "meta_eccentricity": 0.0001339,
        "meta_inclination": 97.22,
        "meta_ra_of_asc_node": 54.1948,
        "meta_arg_of_pericenter": 52.1974,
        "meta_mean_anomaly": 307.9394,
        "meta_ephemeris_type": 0,
        "meta_classification_type": "U",
        "meta_norad_cat_id": 46277,
        "meta_element_set_no": 999,
        "meta_rev_at_epoch": 29454,
        "meta_bstar": 0.00018095,
        "meta_mean_motion_dot": 7.253e-05,
        "meta_mean_motion_ddot": 0,
        "tle_line1": "1 46277U 20061F   25355.20411916  .00007253  00000+0  18095-3 0  9991",
        "tle_line2": "2 46277  97.2200  54.1948 0001339  52.1974 307.9394 15.40487127294541"
      },
      "geometry": {
        "type": "Point",
        "coordinates": [
          53.00378625918249,
          10.79717888078386
        ]
      }
    },
    {
      "type": "Feature",
      "properties": {
        "norad_id": 46984,
        "name": "SENTINEL-6A",
        "group": "resource",
        "lat": 62.01368727974516,
        "lon": -158.88348878672963,
        "alt_km": 1336.5884412167243,
        "timestamp": "2025-12-21T09:37:22.306186+00:00",
        "meta_object_name": "SENTINEL-6A",
        "meta_object_id": "2020-086A",
        "meta_epoch": "2025-12-21T03:36:37.810368",
        "meta_mean_motion": 12.80930855,
        "meta_eccentricity": 0.0007719,
        "meta_inclination": 66.0395,
        "meta_ra_of_asc_node": 144.8386,
        "meta_arg_of_pericenter": 269.3712,
        "meta_mean_anomaly": 90.6418,
        "meta_ephemeris_type": 0,
        "meta_classification_type": "U",
        "meta_norad_cat_id": 46984,
        "meta_element_set_no": 999,
        "meta_rev_at_epoch": 23752,
        "meta_bstar": -2.7851e-05,
        "meta_mean_motion_dot": -6.7e-07,
        "meta_mean_motion_ddot": 0,
        "tle_line1": "1 46984U 20086A   25355.15043762 -.00000067  00000+0 -27851-4 0  9996",
        "tle_line2": "2 46984  66.0395 144.8386 0007719 269.3712  90.6418 12.80930855237528"
      },
      "geometry": {
        "type": "Point",
        "coordinates": [
          -158.88348878672963,
          62.01368727974516
        ]
      }
    },
    {
      "type": "Feature",
      "properties": {
        "norad_id": 48079,
        "name": "GAOFEN-12 02",
        "group": "resource",
        "lat": 52.48462805792452,
        "lon": -21.16948702924178,
        "alt_km": 620.0958777381784,
        "timestamp": "2025-12-21T09:37:22.306196+00:00",
        "meta_object_name": "GAOFEN-12 02",
        "meta_object_id": "2021-026A",
        "meta_epoch": "2025-12-21T04:31:04.259136",
        "meta_mean_motion": 14.80684147,
        "meta_eccentricity": 0.0003602,
        "meta_inclination": 97.9854,
        "meta_ra_of_asc_node": 349.154,
        "meta_arg_of_pericenter": 84.2308,
        "meta_mean_anomaly": 275.9315,
        "meta_ephemeris_type": 0,
        "meta_classification_type": "U",
        "meta_norad_cat_id": 48079,
        "meta_element_set_no": 999,
        "meta_rev_at_epoch": 25542,
        "meta_bstar": 5.0162e-05,
        "meta_mean_motion_dot": 3.33e-06,
        "meta_mean_motion_ddot": 0,
        "tle_line1": "1 48079U 21026A   25355.18824374  .00000333  00000+0  50162-4 0  9992",
        "tle_line2": "2 48079  97.9854 349.1540 0003602  84.2308 275.9315 14.80684147255427"
      },
      "geometry": {
        "type": "Point",
        "coordinates": [
          -21.16948702924178,
          52.48462805792452
        ]
      }
    },
    {
      "type": "Feature",
      "properties": {
        "norad_id": 48268,
        "name": "PLEIADES NEO 3",
        "group": "resource",
        "lat": 28.470674299159956,
        "lon": -107.96625814569897,
        "alt_km": 622.3046249309928,
        "timestamp": "2025-12-21T09:37:22.306207+00:00",
        "meta_object_name": "PLEIADES NEO 3",
        "meta_object_id": "2021-034A",
        "meta_epoch": "2025-12-21T04:04:50.852928",
        "meta_mean_motion": 14.81673842,
        "meta_eccentricity": 0.0001362,
        "meta_inclination": 97.8951,
        "meta_ra_of_asc_node": 67.4904,
        "meta_arg_of_pericenter": 92.3995,
        "meta_mean_anomaly": 267.7374,
        "meta_ephemeris_type": 0,
        "meta_classification_type": "U",
        "meta_norad_cat_id": 48268,
        "meta_element_set_no": 999,
        "meta_rev_at_epoch": 25129,
        "meta_bstar": 5.6588e-05,
        "meta_mean_motion_dot": 3.93e-06,
        "meta_mean_motion_ddot": 0,
        "tle_line1": "1 48268U 21034A   25355.17003302  .00000393  00000+0  56588-4 0  9994",
        "tle_line2": "2 48268  97.8951  67.4904 0001362  92.3995 267.7374 14.81673842251297"
      },
      "geometry": {
        "type": "Point",
        "coordinates": [
          -107.96625814569897,
          28.470674299159956
        ]
      }
    },
    {
      "type": "Feature",
      "properties": {
        "norad_id": 49070,
        "name": "PLEIADES NEO 4",
        "group": "resource",
        "lat": -28.648788791276385,
        "lon": 72.06192050299506,
        "alt_km": 630.3525250212888,
        "timestamp": "2025-12-21T09:37:22.306217+00:00",
        "meta_object_name": "PLEIADES NEO 4",
        "meta_object_id": "2021-073E",
        "meta_epoch": "2025-12-20T17:32:43.601280",
        "meta_mean_motion": 14.81672177,
        "meta_eccentricity": 0.00013249,
        "meta_inclination": 97.8951,
        "meta_ra_of_asc_node": 67.0538,
        "meta_arg_of_pericenter": 89.6187,
        "meta_mean_anomaly": 270.5178,
        "meta_ephemeris_type": 0,
        "meta_classification_type": "U",
        "meta_norad_cat_id": 49070,
        "meta_element_set_no": 999,
        "meta_rev_at_epoch": 23494,
        "meta_bstar": -3.6645539e-05,
        "meta_mean_motion_dot": -3.4e-06,
        "meta_mean_motion_ddot": 0,
        "tle_line1": "1 49070U 21073E   25354.73106020 -.00000340  00000+0 -36646-4 0  9998",
        "tle_line2": "2 49070  97.8951  67.0538 0001324  89.6187 270.5178 14.81672177234945"
      },
      "geometry": {
        "type": "Point",
        "coordinates": [
          72.06192050299506,
          -28.648788791276385
        ]
      }
    },
    {
      "type": "Feature",
      "properties": {
        "norad_id": 49260,
        "name": "LANDSAT 9",
        "group": "resource",
        "lat": -56.13407481142644,
        "lon": 75.80649076358881,
        "alt_km": 710.2494371569519,
        "timestamp": "2025-12-21T09:37:22.306227+00:00",
        "meta_object_name": "LANDSAT 9",
        "meta_object_id": "2021-088A",
        "meta_epoch": "2025-12-21T03:17:30.808032",
        "meta_mean_motion": 14.57105787,
        "meta_eccentricity": 0.0001103,
        "meta_inclination": 98.2083,
        "meta_ra_of_asc_node": 63.1261,
        "meta_arg_of_pericenter": 91.6147,
        "meta_mean_anomaly": 268.5177,
        "meta_ephemeris_type": 0,
        "meta_classification_type": "U",
        "meta_norad_cat_id": 49260,
        "meta_element_set_no": 999,
        "meta_rev_at_epoch": 22507,
        "meta_bstar": 7.8219e-05,
        "meta_mean_motion_dot": 3.07e-06,
        "meta_mean_motion_ddot": 0,
        "tle_line1": "1 49260U 21088A   25355.13716213  .00000307  00000+0  78219-4 0  9994",
        "tle_line2": "2 49260  98.2083  63.1261 0001103  91.6147 268.5177 14.57105787225072"
      },
      "geometry": {
        "type": "Point",
        "coordinates": [
          75.80649076358881,
          -56.13407481142644
        ]
      }
    },
    {
      "type": "Feature",
      "properties": {
        "norad_id": 51444,
        "name": "CSG-2",
        "group": "resource",
        "lat": 18.445793220362972,
        "lon": 173.9450684249437,
        "alt_km": 622.4690630804016,
        "timestamp": "2025-12-21T09:37:22.306236+00:00",
        "meta_object_name": "CSG-2",
        "meta_object_id": "2022-008A",
        "meta_epoch": "2025-12-21T04:40:41.881152",
        "meta_mean_motion": 14.82150262,
        "meta_eccentricity": 0.0001443,
        "meta_inclination": 97.8797,
        "meta_ra_of_asc_node": 176.3899,
        "meta_arg_of_pericenter": 84.9044,
        "meta_mean_anomaly": 275.2334,
        "meta_ephemeris_type": 0,
        "meta_classification_type": "U",
        "meta_norad_cat_id": 51444,
        "meta_element_set_no": 999,
        "meta_rev_at_epoch": 21022,
        "meta_bstar": 2.656e-05,
        "meta_mean_motion_dot": 1.59e-06,
        "meta_mean_motion_ddot": 0,
        "tle_line1": "1 51444U 22008A   25355.19492918  .00000159  00000+0  26560-4 0  9990",
        "tle_line2": "2 51444  97.8797 176.3899 0001443  84.9044 275.2334 14.82150262210225"
      },
      "geometry": {
        "type": "Point",
        "coordinates": [
          173.9450684249437,
          18.445793220362972
        ]
      }
    }
  ]
}